{"type": "FeatureCollection", "features": [ {"type": "Feature", "properties": {"norad_id": 30827, "name": "FENGYUN 1C DEB", "group": "fengyun-1c-debris", "lat": 17.00084024666742, "lon": -40.211866340279066, "alt_km": 797.7037428481462, "timestamp": "2025-12-03T13:52:09.840645+00:00", "meta": {"OBJECT_NAME": "FENGYUN 1C DEB", "OBJECT_ID": "1999-025AVM", "EPOCH": "2025-12-03T05:26:11.474880", "MEAN_MOTION": 14.37538922, "ECCENTRICITY": 0.00433785, "INCLINATION": 99.0025, "RA_OF_ASC_NODE": 322.1987, "ARG_OF_PERICENTER": 207.4055, "MEAN_ANOMALY": 152.4842, "EPHEMERIS_TYPE": 0, "CLASSIFICATION_TYPE": "U", "NORAD_CAT_ID": 30827, "ELEMENT_SET_NO": 999, "REV_AT_EPOCH": 96412, "BSTAR": 0.0034982814, "MEAN_MOTION_DOT": 0.00010565, "MEAN_MOTION_DDOT": 0}, "tle": {"line1": "1 30827U 99025AVM 25337.22652170  .00010565  00000+0  34983-2 0  9995", "line2": "2 30827  99.0025 322.1987 0043378 207.4055 152.4842 14.37538922964129"}}, "geometry": {"type": "Point", "coordinates": [-40.211866340279066, 17.00084024666742]}}, {"type": "Feature", "properties": {"norad_id": 30828, "name": "FENGYUN 1C DEB", "group": "fengyun-1c-debris", "lat": -10.194987093926384, "lon": -97.32411241271635, "alt_km": 503.79850635780076, "timestamp": "2025-12-03T13:52:09.840656+00:00", "meta": {"OBJECT_NAME": "FENGYUN 1C DEB", "OBJECT_ID": "1999-025AVN", "EPOCH": "2025-12-02T12:53:36.080160", "MEAN_MOTION": 14.76418196, "ECCENTRICITY": 0.02104459, "INCLINATION": 98.3765, "RA_OF_ASC_NODE": 83.1145, "ARG_OF_PERICENTER": 211.2329, "MEAN_ANOMALY": 211.6315, "EPHEMERIS_TYPE": 0, "CLASSIFICATION_TYPE": "U", "NORAD_CAT_ID": 30828, "ELEMENT_SET_NO": 999, "REV_AT_EPOCH": 98506, "BSTAR": 0.0024792056, "MEAN_MOTION_DOT": 0.00024862, "MEAN_MOTION_DDOT": 0}, "tle": {"line1": "1 30828U 99025AVN 25336.53722315  .00024862  00000+0  24792-2 0  9990", "line2": "2 30828  98.3765  83.1145 0210445 211.2329 211.6315 14.76418196985063"}}, "geometry": {"type": "Point", "coordinates": [-97.32411241271635, -10.194987093926384]}}, {"type": "Feature", "properties": {"norad_id": 30829, "name": "FENGYUN 1C DEB", "group": "fengyun-1c-debris", "lat": -43.58514518957613, "lon": -21.08031857204673, "alt_km": 851.6234671796647, "timestamp": "2025-12-03T13:52:09.840666+00:00", "meta": {"OBJECT_NAME": "FENGYUN 1C DEB", "OBJECT_ID": "1999-025AVP", "EPOCH": "2025-11-24T16:59:09.368448", "MEAN_MOTION": 14.0861447, "ECCENTRICITY": 0.00366216, "INCLINATION": 98.7745, "RA_OF_ASC_NODE": 321.8365, "ARG_OF_PERICENTER": 25.1121, "MEAN_ANOMALY": 335.182, "EPHEMERIS_TYPE": 0, "CLASSIFICATION_TYPE": "U", "NORAD_CAT_ID": 30829, "ELEMENT_SET_NO": 999, "REV_AT_EPOCH": 96179, "BSTAR": 0.00055259552, "MEAN_MOTION_DOT": 9.13e-06, "MEAN_MOTION_DDOT": 0}, "tle": {"line1": "1 30829U 99025AVP 25328.70774732  .00000913  00000+0  55260-3 0  9997", "line2": "2 30829  98.7745 321.8365 0036621  25.1121 335.1820 14.08614470961791"}}, "geometry": {"type": "Point", "coordinates": [-21.08031857204673, -43.58514518957613]}}, {"type": "Feature", "properties": {"norad_id": 30830, "name": "FENGYUN 1C DEB", "group": "fengyun-1c-debris", "lat": 50.492654931481454, "lon": -44.51913299440653, "alt_km": 868.1563853431353, "timestamp": "2025-12-03T13:52:09.840676+00:00", "meta": {"OBJECT_NAME": "FENGYUN 1C DEB", "OBJECT_ID": "1999-025AVQ", "EPOCH": "2025-12-02T22:35:04.933248", "MEAN_MOTION": 14.12213433, "ECCENTRICITY": 0.00302759, "INCLINATION": 98.7289, "RA_OF_ASC_NODE": 325.5992, "ARG_OF_PERICENTER": 217.1067, "MEAN_ANOMALY": 198.3932, "EPHEMERIS_TYPE": 0, "CLASSIFICATION_TYPE": "U", "NORAD_CAT_ID": 30830, "ELEMENT_SET_NO": 999, "REV_AT_EPOCH": 96461, "BSTAR": 0.00033834639, "MEAN_MOTION_DOT": 5.81e-06, "MEAN_MOTION_DDOT": 0}, "tle": {"line1": "1 30830U 99025AVQ 25336.94102932  .00000581  00000+0  33835-3 0  9996", "line2": "2 30830  98.7289 325.5992 0030275 217.1067 198.3932 14.12213433964610"}}, "geometry": {"type": "Point", "coordinates": [-44.51913299440653, 50.492654931481454]}}, {"type": "Feature", "properties": {"norad_id": 30831, "name": "FENGYUN 1C DEB", "group": "fengyun-1c-debris", "lat": -7.63463731060764, "lon": 130.93358206240907, "alt_km": 776.8419339237025, "timestamp": "2025-12-03T13:52:09.840687+00:00", "meta": {"OBJECT_NAME": "FENGYUN 1C DEB", "OBJECT_ID": "1999-025AVR", "EPOCH": "2025-12-03T05:30:54.697536", "MEAN_MOTION": 14.31052649, "ECCENTRICITY": 0.00558223, "INCLINATION": 99.3279, "RA_OF_ASC_NODE": 129.2978, "ARG_OF_PERICENTER": 61.3241, "MEAN_ANOMALY": 299.3536, "EPHEMERIS_TYPE": 0, "CLASSIFICATION_TYPE": "U", "NORAD_CAT_ID": 30831, "ELEMENT_SET_NO": 999, "REV_AT_EPOCH": 65114, "BSTAR": 0.00059431872, "MEAN_MOTION_DOT": 1.543e-05, "MEAN_MOTION_DDOT": 0}, "tle": {"line1": "1 30831U 99025AVR 25337.22979974  .00001543  00000+0  59432-3 0  9997", "line2": "2 30831  99.3279 129.2978 0055822  61.3241 299.3536 14.31052649651142"}}, "geometry": {"type": "Point", "coordinates": [130.93358206240907, -7.63463731060764]}}, {"type": "Feature", "properties": {"norad_id": 30833, "name": "FENGYUN 1C DEB", "group": "fengyun-1c-debris", "lat": 25.087300743511, "lon": -52.814567538198425, "alt_km": 787.2388807822445, "timestamp": "2025-12-03T13:52:09.840697+00:00", "meta": {"OBJECT_NAME": "FENGYUN 1C DEB", "OBJECT_ID": "1999-025AVT", "EPOCH": "2025-11-30T16:08:15.979488", "MEAN_MOTION": 14.26699546, "ECCENTRICITY": 0.00328082, "INCLINATION": 99.8434, "RA_OF_ASC_NODE": 119.2595, "ARG_OF_PERICENTER": 214.1796, "MEAN_ANOMALY": 145.7269, "EPHEMERIS_TYPE": 0, "CLASSIFICATION_TYPE": "U", "NORAD_CAT_ID": 30833, "ELEMENT_SET_NO": 999, "REV_AT_EPOCH": 64239, "BSTAR": 0.00062547884, "MEAN_MOTION_DOT": 1.467e-05, "MEAN_MOTION_DDOT": 0}, "tle": {"line1": "1 30833U 99025AVT 25334.67240717  .00001467  00000+0  62548-3 0  9998", "line2": "2 30833  99.8434 119.2595 0032808 214.1796 145.7269 14.26699546642399"}}, "geometry": {"type": "Point", "coordinates": [-52.814567538198425, 25.087300743511]}}, {"type": "Feature", "properties": {"norad_id": 30836, "name": "FENGYUN 1C DEB", "group": "fengyun-1c-debris", "lat": 71.55563432771086, "lon": -17.01976121223225, "alt_km": 863.4427359827878, "timestamp": "2025-12-03T13:52:09.840707+00:00", "meta": {"OBJECT_NAME": "FENGYUN 1C DEB", "OBJECT_ID": "1999-025AVW", "EPOCH": "2025-12-03T08:25:06.102912", "MEAN_MOTION": 14.11914464, "ECCENTRICITY": 0.00254802, "INCLINATION": 98.7461, "RA_OF_ASC_NODE": 10.2475, "ARG_OF_PERICENTER": 272.1161, "MEAN_ANOMALY": 87.7093, "EPHEMERIS_TYPE": 0, "CLASSIFICATION_TYPE": "U", "NORAD_CAT_ID": 30836, "ELEMENT_SET_NO": 999, "REV_AT_EPOCH": 61871, "BSTAR": 0.00048652893, "MEAN_MOTION_DOT": 8.49e-06, "MEAN_MOTION_DDOT": 0}, "tle": {"line1": "1 30836U 99025AVW 25337.35076508  .00000849  00000+0  48653-3 0  9998", "line2": "2 30836  98.7461  10.2475 0025480 272.1161  87.7093 14.11914464618717"}}, "geometry": {"type": "Point", "coordinates": [-17.01976121223225, 71.55563432771086]}}, {"type": "Feature", "properties": {"norad_id": 30837, "name": "FENGYUN 1C DEB", "group": "fengyun-1c-debris", "lat": 30.851469566417766, "lon": -41.16121201459597, "alt_km": 856.6125845494926, "timestamp": "2025-12-03T13:52:09.840718+00:00", "meta": {"OBJECT_NAME": "FENGYUN 1C DEB", "OBJECT_ID": "1999-025AVX", "EPOCH": "2025-12-02T22:42:15.562080", "MEAN_MOTION": 14.14502133, "ECCENTRICITY": 0.00324775, "INCLINATION": 98.678, "RA_OF_ASC_NODE": 323.4591, "ARG_OF_PERICENTER": 160.971, "MEAN_ANOMALY": 254.8166, "EPHEMERIS_TYPE": 0, "CLASSIFICATION_TYPE": "U", "NORAD_CAT_ID": 30837, "ELEMENT_SET_NO": 999, "REV_AT_EPOCH": 96680, "BSTAR": 0.00040746251, "MEAN_MOTION_DOT": 7.43e-06, "MEAN_MOTION_DDOT": 0}, "tle": {"line1": "1 30837U 99025AVX 25336.94601345  .00000743  00000+0  40746-3 0  9994", "line2": "2 30837  98.6780 323.4591 0032477 160.9710 254.8166 14.14502133966800"}}, "geometry": {"type": "Point", "coordinates": [-41.16121201459597, 30.851469566417766]}}, {"type": "Feature", "properties": {"norad_id": 30838, "name": "FENGYUN 1C DEB", "group": "fengyun-1c-debris", "lat": 26.615250886570585, "lon": -113.75671340041632, "alt_km": 755.5788563528577, "timestamp": "2025-12-03T13:52:09.840728+00:00", "meta": {"OBJECT_NAME": "FENGYUN 1C DEB", "OBJECT_ID": "1999-025AVY", "EPOCH": "2025-12-03T05:26:56.708736", "MEAN_MOTION": 14.47441324, "ECCENTRICITY": 0.0033668, "INCLINATION": 99.0425, "RA_OF_ASC_NODE": 250.4456, "ARG_OF_PERICENTER": 189.0188, "MEAN_ANOMALY": 171.0402, "EPHEMERIS_TYPE": 0, "CLASSIFICATION_TYPE": "U", "NORAD_CAT_ID": 30838, "ELEMENT_SET_NO": 999, "REV_AT_EPOCH": 97176, "BSTAR": 0.0034637389, "MEAN_MOTION_DOT": 0.00012777, "MEAN_MOTION_DDOT": 0}, "tle": {"line1": "1 30838U 99025AVY 25337.22704524  .00012777  00000+0  34637-2 0  9991", "line2": "2 30838  99.0425 250.4456 0033668 189.0188 171.0402 14.47441324971769"}}, "geometry": {"type": "Point", "coordinates": [-113.75671340041632, 26.615250886570585]}}, {"type": "Feature", "properties": {"norad_id": 30840, "name": "FENGYUN 1C DEB", "group": "fengyun-1c-debris", "lat": 70.4325836967439, "lon": -34.180537628875086, "alt_km": 552.2750075891881, "timestamp": "2025-12-03T13:52:09.840739+00:00", "meta": {"OBJECT_NAME": "FENGYUN 1C DEB", "OBJECT_ID": "1999-025AWA", "EPOCH": "2025-12-03T06:58:44.546304", "MEAN_MOTION": 14.60952746, "ECCENTRICITY": 0.02188184, "INCLINATION": 98.0231, "RA_OF_ASC_NODE": 348.9202, "ARG_OF_PERICENTER": 40.2226, "MEAN_ANOMALY": 321.4938, "EPHEMERIS_TYPE": 0, "CLASSIFICATION_TYPE": "U", "NORAD_CAT_ID": 30840, "ELEMENT_SET_NO": 999, "REV_AT_EPOCH": 72993, "BSTAR": 0.00090853124, "MEAN_MOTION_DOT": 6.206e-05, "MEAN_MOTION_DDOT": 0}, "tle": {"line1": "1 30840U 99025AWA 25337.29079336  .00006206  00000+0  90853-3 0  9990", "line2": "2 30840  98.0231 348.9202 0218818  40.2226 321.4938 14.60952746729936"}}, "geometry": {"type": "Point", "coordinates": [-34.180537628875086, 70.4325836967439]}}]}